#cP2022  4  4  6  0  0.00000000     576 d+D   IGb14 EXT AIUB
## 2204 108000.00000000   300.00000000 59673 0.2500000000000
+   68   G01G02G03G04G05G06G07G08G09G10G11G12G13G14G15G16G17
+        G18G19G20G21G22G23G24G25G26G27G28G29G30G31G32R01R02
+        R03R04R05R07R08R09R12R13R14R15R17R18R19R20R21R22R24
+        E01E02E03E04E05E07E08E09E14E18E19E21E24E25E27E30E31
+          0  0  0  0  0  0  0  0  0  0  0  0  0  0  0  0  0
++         6  8  6  8  7  7  7  7  5  6  9  7  7  7  7  7  8
++         9  7  7  8  7  6  6  6  7  6  7  7  6  7  6  8  6
++         7  6  7  6  7  7  7  8  7  7  8  7  8  9  8  8  8
++         6  6  7  6  7  5  6  7  6  7  6  6  7  6  6  7  6
++         0  0  0  0  0  0  0  0  0  0  0  0  0  0  0  0  0
%c M  cc GPS ccc cccc cccc cccc cccc ccccc ccccc ccccc ccccc
%c cc cc ccc ccc cccc cccc cccc cccc ccccc ccccc ccccc ccccc
%f  1.2500000  1.025000000  0.00000000000  0.000000000000000
%f  0.0000000  0.000000000  0.00000000000  0.000000000000000
%i    0    0    0    0      0      0      0      0         0
%i    0    0    0    0      0      0      0      0         0
/* Center for Orbit Determination in Europe (CODE)          
/* Ultra-rapid GRE orbits starting year-day 22094 06 hour   
/* Observed/predicted: 25/23 hours (data used up to 095G)   
/* PCV:IGS14      OL/AL:FES2014b NONE     YN ORB:CoN CLK:BRD
*  2022  4  4 11 50  0.00000000
PG01 -21108.274976 -14245.456090  -8451.432820    392.880795
PG02   1344.625433  16052.980664  21753.844302   -652.900250
PG03 -12718.174634 -18665.040762  13961.879791   -192.703970
PG04 -13383.907136  -8511.236356  21324.146701   -178.616972
PG05   5301.153843  25939.468514    111.036578    -77.091475
PG06 -15139.214352   8498.684170  20191.405412    254.697250
PG07 -25486.398853  -4885.215541  -6381.588475    319.035574
PG08  -4399.838444 -15495.261622 -21089.549464    -62.541564
PG09 -20605.316000   2127.461414  16574.088651   -345.847974
PG10  12427.843290 -10826.572387 -20614.117451   -368.135570
PG11    516.645611  16222.326914  21023.822950    -49.938188
PG12   9671.608389  22049.218547  11080.675481   -195.189675
PG13  -5448.574046  18312.117269 -18530.195348    288.286938
PG14 -13602.882284   9624.054523 -20671.387187    -99.879820
PG15   7251.676936  15094.380738 -20974.620284    -71.566566
PG16    702.843525 -25982.680891   3804.343351   -488.135839
PG17 -22322.261573  14182.143032  -2313.489589    595.993450
PG18  25216.954885   5003.071637  -6890.806947    203.814900
PG19 -20180.081173  16536.879101   4120.010389    139.929118
PG20    428.761056  24683.660812  10102.659773    515.988742
PG21 -13857.981244 -15696.625967 -16061.715933    160.124582
PG22  17550.082402 -18488.590989   7517.678654    238.039037
PG23  15432.833570   1501.153714 -21584.724962    -12.330699
PG24  18804.789331  14833.559058 -12206.862742    260.856343
PG25  15357.619816   9782.811593  19142.686484    307.467063
PG26   6557.127380 -20808.902708  14847.662268    196.067461
PG27   7437.208339 -20000.131078 -15760.717800    174.338744
PG28  -9783.330540  18410.186054 -16073.602868    373.934018
PG29  19837.287774    489.940657  17634.653240   -499.227386
PG30 -22435.869372   2291.251902 -14150.641878   -522.157599
PG31  13431.438386 -10197.628920  20497.144097   -171.937328
PG32  20512.457158 -16697.429392   -420.225048    -98.368693
PR01  -8932.890477  -7026.626803  22844.406888      7.551951
PR02 -14639.330354  12814.326422  16580.090537    514.552859
PR03 -10946.671115  23064.435293    635.364228     54.300138
PR04  -1415.414431  20205.679979 -15476.401891    135.066623
PR05   8937.577165   6311.020146 -23026.252428     90.565196
PR07  10567.041034 -23189.212202    260.806298     33.491040
PR08   1113.537508 -20138.591519  15662.874999    -64.379735
PR09  13065.754752   -524.437339  21901.764356     48.008201
PR12 -17304.447148 -15396.862500 -10641.945817     17.754332
PR13 -13513.552625   -896.520509 -21634.830740    -20.389694
PR14  -1030.665126  15375.534338 -20316.224778     76.149440
PR15  11388.289250  21721.574090  -6997.585397     97.083078
PR17 -13004.993780  10025.378123  19514.992882    514.853757
PR18   5016.657839   9922.219531  22964.272134    112.433545
PR19  19687.325710   5681.476667  15187.231475   -184.104816
PR20  24891.625853  -3238.303139  -4383.660720    -67.977279
PR21  11674.869108 -10119.334979 -20304.205852   -290.664873
PR22  -6086.488046  -9737.381446 -22804.836628   -174.754757
PR24 -24637.535401   4244.415258   5064.953964     87.522356
PE01 -17860.490280 -12281.103429 -20158.322953   -609.846221
PE02  17872.530961  12143.395784  20231.946627    290.647839
PE03  20380.933476    507.530774 -21460.392873   -544.451374
PE04 -23217.080081  16724.029861   7591.446404   -999.205534
PE05   5492.595244  17804.202078 -22992.256674   -194.017130
PE07  12357.322534 -24490.371667  11144.117615   -655.188300
PE08  23044.701651 -17097.111610  -7284.009636   -506.584480
PE09 -12166.934919  24474.967057 -11337.925871   -472.591421
PE14  -1973.898846 -22420.568340 -23310.904082  -1802.111393
PE18   7454.864483  13294.081589  18283.877492  -1604.480326
PE19 -18988.747002  -2836.185414  22540.567551  -2448.090021
PE21 -11785.304682 -26578.560900  -5545.320730   -726.470252
PE24  -2491.615637  25930.044818 -14099.632230   -542.434007
PE25  11637.672561  26703.312512   5285.082348   -569.205950
PE27   1469.832535 -26491.677269  13108.211828   -268.530422
PE30  14292.478966  -9663.009808  24036.634462   -403.356198
PE31 -13735.883464  10828.993299 -23878.618117   -494.543545
*  2022  4  4 11 55  0.00000000
PG01 -20790.978478 -14172.291974  -9334.646605    392.878135
PG02    582.970097  15856.494005  21940.720754   -652.900319
PG03 -12753.318865 -19187.706981  13209.946666   -192.708711
PG04 -12750.768574  -9024.238462  21498.068517   -178.616086
PG05   5207.490813  25930.975464   1065.596310    -77.091884
PG06 -15838.126420   8214.716753  19769.326689    254.701275
PG07 -25682.102122  -5042.672587  -5480.840777    319.035983
PG08  -3781.011469 -15999.798782 -20820.389547    -62.542008
PG09 -20155.100174   1659.609361  17167.208273   -345.847291
PG10  12596.283027 -10041.804082 -20913.384418   -368.139253
PG11   -231.539074  15923.655152  21255.521763    -49.936346
PG12   9648.842685  22470.507737  10246.625573   -195.191415
PG13  -6053.872221  18641.832088 -17996.768412    288.288882
PG14 -13736.102900   8841.341850 -20933.639263    -99.880740
PG15   6704.383240  15640.374890 -20741.483110    -71.565679
PG16    805.002977 -25815.441342   4752.968341   -488.137033
PG17 -22263.513715  14056.451762  -3269.477464    595.994917
PG18  25419.635911   5155.189765  -5975.364289    203.812137
PG19 -20344.461712  16559.388360   3165.550083    139.930619
PG20    219.888605  24333.407504  10918.882814    515.988674
PG21 -13214.934712 -15569.935601 -16670.272376    160.124685
PG22  17805.154071 -18568.413753   6612.534918    238.040811
PG23  15584.045492   2304.353875 -21407.304272    -12.331585
PG24  18338.422987  14784.050400 -12959.293250    260.854979
PG25  15450.251391  10514.673453  18689.722321    307.468564
PG26   6769.772399 -20254.106185  15510.227237    196.068314
PG27   7918.925300 -20328.841529 -15070.091157    174.341814
PG28  -9886.862477  17766.003705 -16696.347789    373.933370
PG29  19303.866311    918.787431  18197.140745   -499.228682
PG30 -22900.955785   2029.106000 -13438.832497   -522.158145
PG31  14149.234894  -9890.301689  20178.030853   -171.937839
PG32  20542.281875 -16601.566244  -1373.919761    -98.371047
PR01  -8577.066302  -7890.882169  22698.509025      7.552049
PR02 -14318.412396  12199.638123  17308.393445    514.553027
PR03 -10881.795704  23043.163967   1704.034088     54.300535
PR04  -1633.492396  20788.916798 -14663.123770    135.067243
PR05   8550.894795   7173.886884 -22920.878226     90.565386
PR07  10517.408109 -23197.028372   -811.449980     33.490975
PR08   1334.572817 -20722.884717  14859.059112    -64.379930
PR09  13610.925722    181.371735  21570.566403     48.008669
PR12 -17585.419498 -15709.993872  -9681.772518     17.754365
PR13 -14054.648860  -1589.651349 -21246.363866    -20.389846
PR14  -1518.011093  14685.340700 -20790.941476     76.149538
PR15  11240.507137  21447.013584  -8008.297330     97.082980
PR17 -13787.560908  10140.648423  18907.800489    514.854562
PR18   4072.454200   9998.500501  23119.225195    112.434095
PR19  19043.025415   5665.499792  15993.350130   -184.105246
PR20  25045.453067  -3323.768889  -3313.157714    -67.977486
PR21  12491.640137 -10232.717869 -19754.334677   -290.665715
PR22  -5147.631785  -9801.807404 -23004.862836   -174.755568
PR24 -24818.020826   4314.764814   4011.568413     87.522823
PE01 -18050.681352 -12849.056403 -19627.613289   -609.848423
PE02  18063.688598  12713.771573  19705.605083    290.648568
PE03  19933.806229    981.746069 -21859.828068   -544.452595
PE04 -23044.595102  16555.574143   8439.992913   -999.207999
PE05   5028.249579  18311.535576 -22698.250921   -194.016068
PE07  12568.085826 -24735.025411  10338.435646   -655.189444
PE08  22874.769281 -16937.915184  -8140.198865   -506.586423
PE09 -12378.371190  24728.100064 -10531.400231   -472.595338
PE14  -1614.588700 -22754.746667 -23060.065550  -1802.115373
PE18   6617.101947  13793.543966  18128.959823  -1604.466862
PE19 -18519.436179  -3331.632310  22861.036667  -2448.280607
PE21 -11856.808045 -26717.045025  -4654.932561   -726.470956
PE24  -2596.396888  25507.863149 -14832.050266   -542.440275
PE25  11707.252874  26834.302760   4392.899467   -569.206265
PE27   1566.802747 -26096.490294  13867.835391   -268.533035
PE30  14499.182032  -8966.452471  24182.644012   -403.365420
PE31 -13942.407583  10137.524627 -24061.601742   -494.543724
EOF
